0 COSMOS 2251 DEB
1 37093U 93036BFP 13281.82257712  .00002410  00000-0  50018-3 0  1123
2 37093 074.0269 088.6289 0194148 012.3335 348.2003 14.49540000201670
0 COSMOS 2251 DEB
1 37093U 93036BFP 13286.10145086  .00002434  00000-0  50572-3 0  1131
2 37093 074.0256 080.5898 0193555 003.4206 356.8420 14.49561568202291
0 COSMOS 2251 DEB
1 37093U 93036BFP 13291.76048776  .00002555  00000-0  52799-3 0  1145
2 37093 074.0259 069.9505 0195125 350.3737 009.4610 14.49593588203119
0 COSMOS 2251 DEB
1 37093U 93036BFP 13292.72663522  .00002599  00000-0  53648-3 0  1157
2 37093 074.0253 068.1333 0195513 348.1321 011.5638 14.49600026203253
